LEMUR-2-KREMPEL-BRO1    
1 63357U 25061G   26061.92337078  .00005507  00000+0  30867-3 0  9995
2 63357  97.5518  38.5812 0017141 254.5227 105.4111 15.13684195 51551
LEMUR-2-LANGER2SPACE    
1 63358U 25061H   26061.92859877  .00005767  00000+0  32613-3 0  9991
2 63358  97.5521  38.4436 0015087 264.6286  95.3224 15.13370835 51545
LEMUR-2-BALTO           
1 63395U 25052BH  26061.95234648  .00007000  00000+0  58510-3 0  9994
2 63395  97.7009 316.8579 0003168  18.7287 341.4052 14.98813347 52846
